STARLINK-36796          
1 67722U 26026B   26064.16668981 -.01947858  00000+0 -22997-1 0  9996
2 67722  97.2837 118.5880 0001872  64.7596  39.4278 15.64465483  4584
STARLINK-36369          
1 67723U 26026C   26064.16668981 -.01948617  00000+0 -22641-1 0  9997
2 67723  97.2838 118.5928 0001972  61.2472  54.3243 15.64867282  4586
STARLINK-36752          
1 67724U 26026D   26064.16668981 -.01936835  00000+0 -21356-1 0  9999
2 67724  97.2839 118.6028 0001925  64.0493  76.0958 15.66152204  4589
STARLINK-36754          
1 67725U 26026E   26064.16668981 -.01948457  00000+0 -23831-1 0  9993
2 67725  97.2838 118.5911 0001940  62.4208  48.4832 15.63575017  4584
STARLINK-36755          
1 67726U 26026F   26064.16668981 -.01936164  00000+0 -26045-1 0  9996
2 67726  97.2836 118.5772 0001851  59.2573  20.6304 15.61121635  4585
STARLINK-36741          
1 67727U 26026G   26064.16668981 -.01924153  00000+0 -24761-1 0  9995
2 67727  97.2835 118.5872 0001910  65.2041  38.0379 15.62239588  4582
STARLINK-36757          
1 67728U 26026H   26064.16668981 -.01941241  00000+0 -20929-1 0  9995
2 67728  97.2844 118.6166 0001867  67.5114 105.0464 15.66715244  4589
STARLINK-36751          
1 67729U 26026J   26064.16668981 -.01952443  00000+0 -20579-1 0  9993
2 67729  97.2845 118.6257 0001848  69.2346 124.1164 15.67290384  4580
STARLINK-36747          
1 67730U 26026K   26064.16668981 -.01951607  00000+0 -20653-1 0  9999
2 67730  97.2841 118.6215 0001883  67.4451 116.1915 15.67189983  4585
STARLINK-36315          
1 67731U 26026L   26064.16668981 -.01950973  00000+0 -20415-1 0  9991
2 67731  97.2841 118.6289 0001755  77.7998 123.0677 15.67465927  4582
STARLINK-36260          
1 67732U 26026M   26064.16668981 -.01951962  00000+0 -20111-1 0  9994
2 67732  97.2844 118.6337 0001817  67.6008 144.2771 15.67846850  4587
STARLINK-36746          
1 67733U 26026N   26064.16668981  .00059198  00000+0  10832-2 0  9992
2 67733  97.2844 118.4670 0001621  54.0194 126.4453 15.49156802  4585
